start=new Date('2022-02-25T00:00:00.000Z').valueOf();
sats=[{"OBJECT_TYPE":"PAYLOAD","APOAPSIS":"548.353","COUNTRY_CODE":"US","DECAY_DATE":null,"SEMIMAJOR_AXIS":"6925.364","OBJECT_NAME":"STARLINK-2560","FILE":"3318573","PERIAPSIS":"546.105","PERIOD":"95.592","SITE":"AFETR","CENTER_NAME":"EARTH","CLASSIFICATION_TYPE":"U","BSTAR":"0.00006463000000","EPOCH":"2022-02-24T10:41:56.948064","MEAN_MOTION_DOT":"0.00000681","TIME_SYSTEM":"UTC","REV_AT_EPOCH":"4510","MEAN_MOTION_DDOT":"0.0000000000000","TLE_LINE2":"2 48402  53.0535 119.7636 0001623  58.9724 301.1424 15.06395030 45108","OBJECT_ID":"2021-038BB","ARG_OF_PERICENTER":"58.9724","REF_FRAME":"TEME","EPHEMERIS_TYPE":"0","TLE_LINE1":"1 48402U 21038BB  22055.44579801  .00000681  00000-0  64630-4 0  9992","RCS_SIZE":"LARGE","MEAN_MOTION":"15.06395030","GP_ID":"196840589","MEAN_ELEMENT_THEORY":"SGP4","ELEMENT_SET_NO":"999","INCLINATION":"53.0535","NORAD_CAT_ID":"48402","LAUNCH_DATE":"2021-05-04","MEAN_ANOMALY":"301.1424","ECCENTRICITY":"0.00016230","RA_OF_ASC_NODE":"119.7636"},{"MEAN_MOTION_DOT":"0.00000800","EPOCH":"2022-02-24T13:47:42.493632","REF_FRAME":"TEME","TLE_LINE2":"2 48403  53.0544 119.1710 0001682  65.6137 294.5028 15.06394388 45711","MEAN_MOTION_DDOT":"0.0000000000000","OBJECT_ID":"2021-038BC","ARG_OF_PERICENTER":"65.6137","REV_AT_EPOCH":"4571","TIME_SYSTEM":"UTC","GP_ID":"196875385","TLE_LINE1":"1 48403U 21038BC  22055.57479738  .00000800  00000-0  72607-4 0  9991","MEAN_MOTION":"15.06394388","RCS_SIZE":"LARGE","EPHEMERIS_TYPE":"0","MEAN_ELEMENT_THEORY":"SGP4","LAUNCH_DATE":"2021-05-04","INCLINATION":"53.0544","NORAD_CAT_ID":"48403","ELEMENT_SET_NO":"999","MEAN_ANOMALY":"294.5028","RA_OF_ASC_NODE":"119.1710","ECCENTRICITY":"0.00016820","APOAPSIS":"548.396","OBJECT_TYPE":"PAYLOAD","COUNTRY_CODE":"US","SEMIMAJOR_AXIS":"6925.366","DECAY_DATE":null,"OBJECT_NAME":"STARLINK-2561","PERIAPSIS":"546.066","FILE":"3320105","SITE":"AFETR","PERIOD":"95.592","CENTER_NAME":"EARTH","CLASSIFICATION_TYPE":"U","BSTAR":"0.00007260700000"},{"MEAN_ELEMENT_THEORY":"SGP4","LAUNCH_DATE":"2021-05-04","ELEMENT_SET_NO":"999","NORAD_CAT_ID":"48404","INCLINATION":"53.0548","MEAN_ANOMALY":"297.1592","RA_OF_ASC_NODE":"119.2009","ECCENTRICITY":"0.00016600","EPOCH":"2022-02-24T13:42:24.570144","MEAN_MOTION_DOT":"0.00001615","TLE_LINE2":"2 48404  53.0548 119.2009 0001660  62.9566 297.1592 15.06394233 45129","OBJECT_ID":"2021-038BD","MEAN_MOTION_DDOT":"0.0000000000000","ARG_OF_PERICENTER":"62.9566","REF_FRAME":"TEME","TIME_SYSTEM":"UTC","REV_AT_EPOCH":"4512","GP_ID":"196901777","EPHEMERIS_TYPE":"0","RCS_SIZE":"LARGE","TLE_LINE1":"1 48404U 21038BD  22055.57111771  .00001615  00000-0  12733-3 0  9990","MEAN_MOTION":"15.06394233","PERIAPSIS":"546.082","FILE":"3320325","SITE":"AFETR","PERIOD":"95.593","CENTER_NAME":"EARTH","CLASSIFICATION_TYPE":"U","BSTAR":"0.00012733000000","OBJECT_TYPE":"PAYLOAD","APOAPSIS":"548.381","COUNTRY_CODE":"US","SEMIMAJOR_AXIS":"6925.366","DECAY_DATE":null,"OBJECT_NAME":"STARLINK-2593"},{"DECAY_DATE":null,"SEMIMAJOR_AXIS":"6925.381","OBJECT_NAME":"STARLINK-2570","OBJECT_TYPE":"PAYLOAD","APOAPSIS":"548.448","COUNTRY_CODE":"US","CENTER_NAME":"EARTH","CLASSIFICATION_TYPE":"U","BSTAR":"0.00017862000000","FILE":"3320148","PERIAPSIS":"546.043","PERIOD":"95.593","SITE":"AFETR","EPHEMERIS_TYPE":"0","TLE_LINE1":"1 48405U 21038BE  22055.56743906  .00002379  00000-0  17862-3 0  9997","RCS_SIZE":"LARGE","MEAN_MOTION":"15.06389572","GP_ID":"196876512","EPOCH":"2022-02-24T13:37:06.734784","MEAN_MOTION_DOT":"0.00002379","TIME_SYSTEM":"UTC","REV_AT_EPOCH":"4571","MEAN_MOTION_DDOT":"0.0000000000000","TLE_LINE2":"2 48405  53.0541 119.2200 0001737  63.0757 297.0409 15.06389572 45716","ARG_OF_PERICENTER":"63.0757","OBJECT_ID":"2021-038BE","REF_FRAME":"TEME","MEAN_ANOMALY":"297.0409","ECCENTRICITY":"0.00017370","RA_OF_ASC_NODE":"119.2200","MEAN_ELEMENT_THEORY":"SGP4","ELEMENT_SET_NO":"999","INCLINATION":"53.0541","NORAD_CAT_ID":"48405","LAUNCH_DATE":"2021-05-04"},{"RCS_SIZE":"LARGE","TLE_LINE1":"1 48406U 21038BF  22055.49740231  .00001192  00000-0  98948-4 0  9995","MEAN_MOTION":"15.06385911","EPHEMERIS_TYPE":"0","GP_ID":"196841090","MEAN_MOTION_DOT":"0.00001192","EPOCH":"2022-02-24T11:56:15.559584","REV_AT_EPOCH":"4511","TIME_SYSTEM":"UTC","TLE_LINE2":"2 48406  53.0555 119.5246 0001590  57.9422 302.1721 15.06385911 45115","OBJECT_ID":"2021-038BF","MEAN_MOTION_DDOT":"0.0000000000000","REF_FRAME":"TEME","ARG_OF_PERICENTER":"57.9422","MEAN_ANOMALY":"302.1721","ECCENTRICITY":"0.00015900","RA_OF_ASC_NODE":"119.5246","MEAN_ELEMENT_THEORY":"SGP4","NORAD_CAT_ID":"48406","INCLINATION":"53.0555","ELEMENT_SET_NO":"999","LAUNCH_DATE":"2021-05-04","DECAY_DATE":null,"SEMIMAJOR_AXIS":"6925.392","OBJECT_NAME":"STARLINK-2568","APOAPSIS":"548.358","OBJECT_TYPE":"PAYLOAD","COUNTRY_CODE":"US","CLASSIFICATION_TYPE":"U","CENTER_NAME":"EARTH","BSTAR":"0.00009894800000","FILE":"3318573","PERIAPSIS":"546.156","PERIOD":"95.593","SITE":"AFETR"},{"OBJECT_NAME":"STARLINK-2595","SEMIMAJOR_AXIS":"6925.397","DECAY_DATE":null,"COUNTRY_CODE":"US","OBJECT_TYPE":"PAYLOAD","APOAPSIS":"548.294","BSTAR":"0.00013791000000","CLASSIFICATION_TYPE":"U","CENTER_NAME":"EARTH","SITE":"AFETR","PERIOD":"95.593","FILE":"3320325","PERIAPSIS":"546.230","GP_ID":"196901026","EPHEMERIS_TYPE":"0","TLE_LINE1":"1 48407U 21038BG  22055.56007004  .00001772  00000-0  13791-3 0  9994","MEAN_MOTION":"15.06384254","RCS_SIZE":"LARGE","ARG_OF_PERICENTER":"62.7065","TLE_LINE2":"2 48407  53.0539 119.2322 0001490  62.7065 297.4076 15.06384254 45114","MEAN_MOTION_DDOT":"0.0000000000000","REF_FRAME":"TEME","OBJECT_ID":"2021-038BG","TIME_SYSTEM":"UTC","REV_AT_EPOCH":"4511","EPOCH":"2022-02-24T13:26:30.051456","MEAN_MOTION_DOT":"0.00001772","RA_OF_ASC_NODE":"119.2322","ECCENTRICITY":"0.00014900","MEAN_ANOMALY":"297.4076","LAUNCH_DATE":"2021-05-04","ELEMENT_SET_NO":"999","INCLINATION":"53.0539","NORAD_CAT_ID":"48407","MEAN_ELEMENT_THEORY":"SGP4"},{"DECAY_DATE":null,"SEMIMAJOR_AXIS":"6925.375","OBJECT_NAME":"STARLINK-2592","OBJECT_TYPE":"PAYLOAD","APOAPSIS":"548.261","COUNTRY_CODE":"US","CENTER_NAME":"EARTH","CLASSIFICATION_TYPE":"U","BSTAR":"0.00013878000000","PERIAPSIS":"546.219","FILE":"3320325","PERIOD":"95.593","SITE":"AFETR","EPHEMERIS_TYPE":"0","TLE_LINE1":"1 48408U 21038BH  22055.68907283  .00001786  00000-0  13878-3 0  9997","MEAN_MOTION":"15.06391299","RCS_SIZE":"LARGE","GP_ID":"196902277","EPOCH":"2022-02-24T16:32:15.892512","MEAN_MOTION_DOT":"0.00001786","TIME_SYSTEM":"UTC","REV_AT_EPOCH":"4513","MEAN_MOTION_DDOT":"0.0000000000000","TLE_LINE2":"2 48408  53.0540 118.6566 0001474  69.2546 290.8601 15.06391299 45138","OBJECT_ID":"2021-038BH","ARG_OF_PERICENTER":"69.2546","REF_FRAME":"TEME","MEAN_ANOMALY":"290.8601","ECCENTRICITY":"0.00014740","RA_OF_ASC_NODE":"118.6566","MEAN_ELEMENT_THEORY":"SGP4","ELEMENT_SET_NO":"999","INCLINATION":"53.0540","NORAD_CAT_ID":"48408","LAUNCH_DATE":"2021-05-04"},{"BSTAR":"0.00004464000000","CLASSIFICATION_TYPE":"U","CENTER_NAME":"EARTH","PERIOD":"95.593","SITE":"AFETR","FILE":"3320325","PERIAPSIS":"546.165","OBJECT_NAME":"STARLINK-2596","DECAY_DATE":null,"SEMIMAJOR_AXIS":"6925.404","COUNTRY_CODE":"US","OBJECT_TYPE":"PAYLOAD","APOAPSIS":"548.373","ECCENTRICITY":"0.00015940","RA_OF_ASC_NODE":"123.8581","MEAN_ANOMALY":"308.8752","ELEMENT_SET_NO":"999","INCLINATION":"53.0552","NORAD_CAT_ID":"48409","LAUNCH_DATE":"2021-05-04","MEAN_ELEMENT_THEORY":"SGP4","EPHEMERIS_TYPE":"0","RCS_SIZE":"LARGE","TLE_LINE1":"1 48409U 21038BJ  22055.64623122  .00000383  00000-0  44640-4 0  9995","MEAN_MOTION":"15.06381823","GP_ID":"196902028","TIME_SYSTEM":"UTC","REV_AT_EPOCH":"4507","ARG_OF_PERICENTER":"51.2380","TLE_LINE2":"2 48409  53.0552 123.8581 0001594  51.2380 308.8752 15.06381823 45079","MEAN_MOTION_DDOT":"0.0000000000000","OBJECT_ID":"2021-038BJ","REF_FRAME":"TEME","EPOCH":"2022-02-24T15:30:34.377408","MEAN_MOTION_DOT":"0.00000383"},{"MEAN_ELEMENT_THEORY":"SGP4","ELEMENT_SET_NO":"999","INCLINATION":"53.0561","NORAD_CAT_ID":"48410","LAUNCH_DATE":"2021-05-04","MEAN_ANOMALY":"299.6174","ECCENTRICITY":"0.00014960","RA_OF_ASC_NODE":"72.6477","EPOCH":"2022-02-24T22:00:00.999936","MEAN_MOTION_DOT":"0.00052723","TIME_SYSTEM":"UTC","REV_AT_EPOCH":"358","TLE_LINE2":"2 48410  53.0561  72.6477 0001496  63.0112 299.6174 15.06371272  3583","MEAN_MOTION_DDOT":"0.0000000000000","REF_FRAME":"TEME","OBJECT_ID":"2021-038BK","ARG_OF_PERICENTER":"63.0112","EPHEMERIS_TYPE":"0","TLE_LINE1":"1 48410U 21038BK  22055.91667824  .00052723  00000-0  35348-2 0  9992","RCS_SIZE":"LARGE","MEAN_MOTION":"15.06371272","GP_ID":"196900776","FILE":"3320325","PERIAPSIS":"546.266","PERIOD":"95.594","SITE":"AFETR","CLASSIFICATION_TYPE":"U","CENTER_NAME":"EARTH","BSTAR":"0.00353480000000","OBJECT_TYPE":"PAYLOAD","APOAPSIS":"548.338","COUNTRY_CODE":"US","DECAY_DATE":null,"SEMIMAJOR_AXIS":"6925.437","OBJECT_NAME":"STARLINK-2563"},{"EPOCH":"2022-02-25T00:00:00.999648","MEAN_MOTION_DOT":"0.00033661","TIME_SYSTEM":"UTC","REV_AT_EPOCH":"4646","TLE_LINE2":"2 48411  53.0561  67.2707 0001845  61.0194 301.2370 15.06381911 46469","MEAN_MOTION_DDOT":"0.0000000000000","OBJECT_ID":"2021-038BL","REF_FRAME":"TEME","ARG_OF_PERICENTER":"61.0194","EPHEMERIS_TYPE":"0","TLE_LINE1":"1 48411U 21038BL  22056.00001157  .00033661  00000-0  22690-2 0  9991","MEAN_MOTION":"15.06381911","RCS_SIZE":"LARGE","GP_ID":"196876623","MEAN_ELEMENT_THEORY":"SGP4","ELEMENT_SET_NO":"999","NORAD_CAT_ID":"48411","INCLINATION":"53.0561","LAUNCH_DATE":"2021-05-04","MEAN_ANOMALY":"301.2370","ECCENTRICITY":"0.00018450","RA_OF_ASC_NODE":"67.2707","OBJECT_TYPE":"PAYLOAD","APOAPSIS":"548.547","COUNTRY_CODE":"US","DECAY_DATE":null,"SEMIMAJOR_AXIS":"6925.404","OBJECT_NAME":"STARLINK-2505","FILE":"3320156","PERIAPSIS":"545.991","PERIOD":"95.593","SITE":"AFETR","CENTER_NAME":"EARTH","CLASSIFICATION_TYPE":"U","BSTAR":"0.00226900000000"}];
